[{"OBJECT_NAME":"CUBESX-HSE 3 (RS42S)","OBJECT_ID":"2023-091N","EPOCH":"2026-03-09T22:57:25.321248","MEAN_MOTION":15.286147,"ECCENTRICITY":0.00127191,"INCLINATION":97.5203,"RA_OF_ASC_NODE":133.4295,"ARG_OF_PERICENTER":86.5376,"MEAN_ANOMALY":273.7318,"EPHEMERIS_TYPE":0,"CLASSIFICATION_TYPE":"U","NORAD_CAT_ID":57178,"ELEMENT_SET_NO":999,"REV_AT_EPOCH":14925,"BSTAR":0.00059055694,"MEAN_MOTION_DOT":0.00016417,"MEAN_MOTION_DDOT":0},{"OBJECT_NAME":"STARLINK-34521","OBJECT_ID":"2025-137U","EPOCH":"2026-03-09T22:25:26.164704","MEAN_MOTION":15.30216317,"ECCENTRICITY":0.00011301,"INCLINATION":53.1612,"RA_OF_ASC_NODE":334.0022,"ARG_OF_PERICENTER":155.5479,"MEAN_ANOMALY":204.5575,"EPHEMERIS_TYPE":0,"CLASSIFICATION_TYPE":"U","NORAD_CAT_ID":64612,"ELEMENT_SET_NO":999,"REV_AT_EPOCH":4077,"BSTAR":0.0010236873,"MEAN_MOTION_DOT":0.00030098,"MEAN_MOTION_DDOT":0}]
